G21         ; Set units to mm
G90         ; Absolute positioning
G1 Z2.54 F2541      ; Move to clearance level

;
; Operation:    0
; Name:         
; Type:         Engrave
; Paths:        10
; Direction:    Conventional
; Cut Depth:    1.9999999999999998
; Pass Depth:   1.9999999999999998
; Plunge rate:  127
; Cut rate:     1016
;

; Path 0
; Rapid to initial position
G1 X4.0726 Y-1.8776 F2541
G1 Z0.0000
; plunge
G1 Z-2.0000 F127
; cut
G1 X3.9108 Y-1.8809 F1016
G1 X3.7493 Y-1.8880
G1 X3.5898 Y-1.8992
G1 X3.4343 Y-1.9141
G1 X3.2847 Y-1.9327
G1 X3.1433 Y-1.9548
G1 X3.0114 Y-1.9804
G1 X2.8915 Y-2.0091
G1 X2.7854 Y-2.0411
G1 X2.6949 Y-2.0764
G1 X2.5791 Y-2.1303
G1 X2.4653 Y-2.1872
G1 X2.3541 Y-2.2471
G1 X2.2454 Y-2.3099
G1 X2.1392 Y-2.3754
G1 X2.0353 Y-2.4437
G1 X1.9342 Y-2.5149
G1 X1.8357 Y-2.5888
G1 X1.7396 Y-2.6652
G1 X1.6464 Y-2.7445
G1 X1.5557 Y-2.8263
G1 X1.4676 Y-2.9106
G1 X1.3825 Y-2.9975
G1 X1.3000 Y-3.0869
G1 X1.2202 Y-3.1788
G1 X1.1435 Y-3.2730
G1 X1.0693 Y-3.3698
G1 X0.9982 Y-3.4689
G1 X0.9299 Y-3.5702
G1 X0.8646 Y-3.6741
G1 X0.8024 Y-3.7800
G1 X0.7429 Y-3.8880
G1 X0.6866 Y-3.9985
G1 X0.6332 Y-4.1107
G1 X0.5829 Y-4.2253
G1 X0.5359 Y-4.3421
G1 X0.4920 Y-4.4607
G1 X0.4511 Y-4.5814
G1 X0.4135 Y-4.7038
G1 X0.3790 Y-4.8283
G1 X0.3480 Y-4.9548
G1 X0.3200 Y-5.0830
G1 X0.2835 Y-5.3086
G1 X0.2642 Y-5.5402
G1 X0.2611 Y-5.7767
G1 X0.2743 Y-6.0168
G1 X0.3030 Y-6.2588
G1 X0.3470 Y-6.5014
G1 X0.4056 Y-6.7432
G1 X0.4783 Y-6.9830
G1 X0.5649 Y-7.2189
G1 X0.6645 Y-7.4501
G1 X0.7772 Y-7.6751
G1 X0.9020 Y-7.8923
G1 X1.0389 Y-8.1003
G1 X1.1869 Y-8.2977
G1 X1.3462 Y-8.4833
G1 X1.5159 Y-8.6558
G1 X1.6589 Y-8.7820
G1 X1.8141 Y-8.9027
G1 X1.9799 Y-9.0170
G1 X2.1544 Y-9.1244
G1 X2.3365 Y-9.2243
G1 X2.5245 Y-9.3162
G1 X2.7165 Y-9.3995
G1 X2.9111 Y-9.4734
G1 X3.1069 Y-9.5380
G1 X3.3023 Y-9.5921
G1 X3.4953 Y-9.6352
G1 X3.6848 Y-9.6670
G1 X3.8692 Y-9.6871
G1 X4.0465 Y-9.6944
G1 X4.2156 Y-9.6888
G1 X4.3746 Y-9.6695
G1 X4.5192 Y-9.6487
G1 X4.6264 Y-9.6451
G1 X4.6970 Y-9.6632
G1 X4.7325 Y-9.7066
G1 X4.7346 Y-9.7798
G1 X4.7043 Y-9.8867
G1 X4.6429 Y-10.0312
G1 X4.5024 Y-10.3200
G1 X4.4549 Y-10.4267
G1 X4.4094 Y-10.5380
G1 X4.3660 Y-10.6530
G1 X4.3246 Y-10.7719
G1 X4.2852 Y-10.8941
G1 X4.2481 Y-11.0198
G1 X4.2131 Y-11.1483
G1 X4.1801 Y-11.2796
G1 X4.1493 Y-11.4132
G1 X4.1206 Y-11.5489
G1 X4.0945 Y-11.6865
G1 X4.0703 Y-11.8260
G1 X4.0488 Y-11.9664
G1 X4.0295 Y-12.1082
G1 X4.0124 Y-12.2504
G1 X3.9980 Y-12.3934
G1 X3.9858 Y-12.5367
G1 X3.9761 Y-12.6797
G1 X3.9690 Y-12.8227
G1 X3.9642 Y-12.9649
G1 X3.9621 Y-13.1064
G1 X3.9627 Y-13.2466
G1 X3.9657 Y-13.3855
G1 X3.9713 Y-13.5230
G1 X3.9797 Y-13.6583
G1 X3.9908 Y-13.7914
G1 X4.0046 Y-13.9220
G1 X4.0213 Y-14.0500
G1 X4.0406 Y-14.1750
G1 X4.0627 Y-14.2966
G1 X4.0879 Y-14.4148
G1 X4.1143 Y-14.5443
G1 X4.1369 Y-14.6835
G1 X4.1552 Y-14.8278
G1 X4.1692 Y-14.9730
G1 X4.1783 Y-15.1148
G1 X4.1824 Y-15.2489
G1 X4.1808 Y-15.3706
G1 X4.1661 Y-15.5788
G1 X4.1643 Y-15.6942
G1 X4.1679 Y-15.8176
G1 X4.1763 Y-15.9454
G1 X4.1897 Y-16.0739
G1 X4.2073 Y-16.1989
G1 X4.2288 Y-16.3167
G1 X4.2542 Y-16.4234
G1 X4.2822 Y-16.5133
G1 X4.3175 Y-16.6050
G1 X4.3599 Y-16.6985
G1 X4.4092 Y-16.7932
G1 X4.4653 Y-16.8895
G1 X4.5275 Y-16.9865
G1 X4.5959 Y-17.0843
G1 X4.6700 Y-17.1828
G1 X4.7498 Y-17.2814
G1 X4.8346 Y-17.3802
G1 X4.9246 Y-17.4788
G1 X5.0190 Y-17.5771
G1 X5.1178 Y-17.6746
G1 X5.2207 Y-17.7714
G1 X5.3274 Y-17.8669
G1 X5.4379 Y-17.9611
G1 X5.5514 Y-18.0538
G1 X5.6680 Y-18.1447
G1 X5.7874 Y-18.2336
G1 X5.9091 Y-18.3205
G1 X6.0330 Y-18.4046
G1 X6.1587 Y-18.4859
G1 X6.2860 Y-18.5644
G1 X6.4148 Y-18.6398
G1 X6.5443 Y-18.7117
G1 X6.6749 Y-18.7797
G1 X6.8057 Y-18.8443
G1 X6.9370 Y-18.9045
G1 X7.0681 Y-18.9601
G1 X7.1989 Y-19.0114
G1 X7.3289 Y-19.0579
G1 X7.4579 Y-19.0993
G1 X7.5248 Y-19.1188
G1 X7.5781 Y-19.1328
G1 X7.6180 Y-19.1414
G1 X7.6441 Y-19.1445
G1 X7.6566 Y-19.1417
G1 X7.6551 Y-19.1336
G1 X7.6396 Y-19.1196
G1 X7.6101 Y-19.0998
G1 X7.5664 Y-19.0741
G1 X7.5087 Y-19.0424
G1 X7.4364 Y-19.0050
G1 X7.3497 Y-18.9614
G1 X7.2484 Y-18.9116
G1 X7.1326 Y-18.8557
G1 X7.0020 Y-18.7935
G1 X6.8565 Y-18.7251
G1 X6.7013 Y-18.6512
G1 X6.5489 Y-18.5763
G1 X6.4033 Y-18.5021
G1 X6.2680 Y-18.4310
G1 X6.1471 Y-18.3647
G1 X6.0444 Y-18.3058
G1 X5.9637 Y-18.2560
G1 X5.9093 Y-18.2176
G1 X5.8120 Y-18.1369
G1 X5.7099 Y-18.0464
G1 X5.6040 Y-17.9474
G1 X5.4958 Y-17.8415
G1 X5.3866 Y-17.7305
G1 X5.2776 Y-17.6154
G1 X5.1704 Y-17.4983
G1 X5.0660 Y-17.3802
G1 X4.9662 Y-17.2631
G1 X4.8720 Y-17.1483
G1 X4.7846 Y-17.0373
G1 X4.7056 Y-16.9319
G1 X4.6360 Y-16.8331
G1 X4.5776 Y-16.7429
G1 X4.5316 Y-16.6629
G1 X4.4991 Y-16.5941
G1 X4.4409 Y-16.4285
G1 X4.3978 Y-16.2573
G1 X4.3691 Y-16.0820
G1 X4.3541 Y-15.9047
G1 X4.3525 Y-15.7272
G1 X4.3640 Y-15.5517
G1 X4.3876 Y-15.3797
G1 X4.4234 Y-15.2131
G1 X4.4707 Y-15.0538
G1 X4.5288 Y-14.9040
G1 X4.5977 Y-14.7653
G1 X4.6766 Y-14.6393
G1 X4.7648 Y-14.5285
G1 X4.8623 Y-14.4343
G1 X4.9685 Y-14.3589
G1 X5.0828 Y-14.3038
G1 X5.2504 Y-14.2555
G1 X5.4597 Y-14.2159
G1 X5.6845 Y-14.1889
G1 X5.8976 Y-14.1790
G1 X6.0475 Y-14.1780
G1 X6.1615 Y-14.1735
G1 X6.2436 Y-14.1630
G1 X6.2974 Y-14.1448
G1 X6.3274 Y-14.1160
G1 X6.3376 Y-14.0749
G1 X6.3315 Y-14.0190
G1 X6.3132 Y-13.9461
G1 X6.2520 Y-13.7155
G1 X6.1966 Y-13.4795
G1 X6.1468 Y-13.2397
G1 X6.1029 Y-12.9969
G1 X6.0648 Y-12.7523
G1 X6.0325 Y-12.5070
G1 X6.0063 Y-12.2621
G1 X5.9863 Y-12.0183
G1 X5.9726 Y-11.7770
G1 X5.9647 Y-11.5392
G1 X5.9634 Y-11.3060
G1 X5.9685 Y-11.0785
G1 X5.9799 Y-10.8575
G1 X5.9980 Y-10.6446
G1 X6.0226 Y-10.4404
G1 X6.0538 Y-10.2461
G1 X6.0820 Y-10.1092
G1 X6.1161 Y-9.9713
G1 X6.1554 Y-9.8331
G1 X6.2004 Y-9.6947
G1 X6.2504 Y-9.5565
G1 X6.3053 Y-9.4186
G1 X6.3647 Y-9.2817
G1 X6.4285 Y-9.1458
G1 X6.4963 Y-9.0112
G1 X6.5682 Y-8.8783
G1 X6.6436 Y-8.7478
G1 X6.7221 Y-8.6192
G1 X6.8042 Y-8.4935
G1 X6.8887 Y-8.3708
G1 X6.9759 Y-8.2514
G1 X7.0655 Y-8.1356
G1 X7.1572 Y-8.0239
G1 X7.2507 Y-7.9164
G1 X7.3457 Y-7.8133
G1 X7.4422 Y-7.7153
G1 X7.5395 Y-7.6223
G1 X7.6380 Y-7.5349
G1 X7.7368 Y-7.4534
G1 X7.8362 Y-7.3779
G1 X7.9355 Y-7.3088
G1 X8.0345 Y-7.2466
G1 X8.1333 Y-7.1915
G1 X8.2314 Y-7.1440
G1 X8.3284 Y-7.1039
G1 X8.4244 Y-7.0721
G1 X8.5189 Y-7.0485
G1 X8.6119 Y-7.0335
G1 X8.8163 Y-7.0160
G1 X8.9962 Y-7.0142
G1 X9.1570 Y-7.0305
G1 X9.3050 Y-7.0660
G1 X9.4458 Y-7.1234
G1 X9.5855 Y-7.2042
G1 X9.7300 Y-7.3104
G1 X9.8852 Y-7.4437
G1 X10.3353 Y-7.8529
G1 X10.7602 Y-7.4437
G1 X10.8887 Y-7.3233
G1 X10.9995 Y-7.2286
G1 X11.0993 Y-7.1567
G1 X11.1945 Y-7.1049
G1 X11.2921 Y-7.0696
G1 X11.3988 Y-7.0482
G1 X11.5212 Y-7.0376
G1 X11.6657 Y-7.0348
G1 X11.7859 Y-7.0373
G1 X11.9022 Y-7.0455
G1 X12.0150 Y-7.0592
G1 X12.1249 Y-7.0787
G1 X12.2319 Y-7.1041
G1 X12.3368 Y-7.1359
G1 X12.4394 Y-7.1737
G1 X12.5405 Y-7.2179
G1 X12.6403 Y-7.2687
G1 X12.7391 Y-7.3264
G1 X12.8372 Y-7.3909
G1 X12.9349 Y-7.4625
G1 X13.0327 Y-7.5415
G1 X13.1313 Y-7.6279
G1 X13.2304 Y-7.7219
G1 X13.3304 Y-7.8235
G1 X13.4142 Y-7.9136
G1 X13.4950 Y-8.0056
G1 X13.5730 Y-8.0990
G1 X13.6477 Y-8.1943
G1 X13.7193 Y-8.2913
G1 X13.7879 Y-8.3899
G1 X13.8537 Y-8.4905
G1 X13.9164 Y-8.5928
G1 X13.9761 Y-8.6970
G1 X14.0327 Y-8.8031
G1 X14.0866 Y-8.9111
G1 X14.1374 Y-9.0211
G1 X14.1854 Y-9.1333
G1 X14.2303 Y-9.2474
G1 X14.2725 Y-9.3637
G1 X14.3119 Y-9.4823
G1 X14.3482 Y-9.6030
G1 X14.3815 Y-9.7257
G1 X14.4122 Y-9.8509
G1 X14.4399 Y-9.9784
G1 X14.4650 Y-10.1082
G1 X14.4871 Y-10.2405
G1 X14.5064 Y-10.3751
G1 X14.5230 Y-10.5120
G1 X14.5367 Y-10.6517
G1 X14.5476 Y-10.7940
G1 X14.5560 Y-10.9388
G1 X14.5613 Y-11.0861
G1 X14.5641 Y-11.2362
G1 X14.5644 Y-11.3889
G1 X14.5616 Y-11.5443
G1 X14.5562 Y-11.7028
G1 X14.5479 Y-11.8831
G1 X14.5379 Y-12.0513
G1 X14.5263 Y-12.2088
G1 X14.5123 Y-12.3576
G1 X14.4955 Y-12.4993
G1 X14.4757 Y-12.6357
G1 X14.4526 Y-12.7688
G1 X14.4257 Y-12.9004
G1 X14.3942 Y-13.0322
G1 X14.3584 Y-13.1661
G1 X14.3172 Y-13.3038
G1 X14.2707 Y-13.4470
G1 X14.2184 Y-13.5979
G1 X14.1600 Y-13.7579
G1 X14.0947 Y-13.9291
G1 X14.0223 Y-14.1130
G1 X13.9916 Y-14.2133
G1 X14.0114 Y-14.2618
G1 X14.0970 Y-14.2662
G1 X14.2636 Y-14.2339
G1 X14.4178 Y-14.2067
G1 X14.5705 Y-14.1945
G1 X14.7213 Y-14.1971
G1 X14.8692 Y-14.2136
G1 X15.0127 Y-14.2433
G1 X15.1514 Y-14.2860
G1 X15.2839 Y-14.3408
G1 X15.4097 Y-14.4071
G1 X15.5270 Y-14.4846
G1 X15.6357 Y-14.5725
G1 X15.7340 Y-14.6700
G1 X15.8217 Y-14.7772
G1 X15.8971 Y-14.8928
G1 X15.9596 Y-15.0165
G1 X16.0081 Y-15.1478
G1 X16.0416 Y-15.2857
G1 X16.0614 Y-15.4142
G1 X16.0744 Y-15.5423
G1 X16.0805 Y-15.6698
G1 X16.0797 Y-15.7963
G1 X16.0724 Y-15.9225
G1 X16.0581 Y-16.0475
G1 X16.0373 Y-16.1719
G1 X16.0096 Y-16.2954
G1 X15.9756 Y-16.4178
G1 X15.9349 Y-16.5390
G1 X15.8880 Y-16.6591
G1 X15.8344 Y-16.7782
G1 X15.7747 Y-16.8958
G1 X15.7084 Y-17.0122
G1 X15.6360 Y-17.1270
G1 X15.5572 Y-17.2402
G1 X15.4724 Y-17.3523
G1 X15.3815 Y-17.4625
G1 X15.2844 Y-17.5710
G1 X15.1813 Y-17.6776
G1 X15.0724 Y-17.7825
G1 X14.9576 Y-17.8854
G1 X14.8366 Y-17.9865
G1 X14.7102 Y-18.0853
G1 X14.5776 Y-18.1821
G1 X14.4396 Y-18.2768
G1 X14.2959 Y-18.3693
G1 X14.1465 Y-18.4592
G1 X13.9916 Y-18.5468
G1 X13.8311 Y-18.6322
G1 X13.6652 Y-18.7147
G1 X13.4940 Y-18.7947
G1 X13.3457 Y-18.8625
G1 X13.2047 Y-18.9283
G1 X13.0747 Y-18.9906
G1 X12.9586 Y-19.0475
G1 X12.8598 Y-19.0972
G1 X12.7818 Y-19.1386
G1 X12.7274 Y-19.1699
G1 X12.7000 Y-19.1894
G1 X12.4998 Y-19.2486
G1 X12.4356 Y-19.0972
G1 X12.4348 Y-19.0784
G1 X12.4107 Y-19.0848
G1 X12.3650 Y-19.1143
G1 X12.3002 Y-19.1656
G1 X12.2184 Y-19.2362
G1 X12.1219 Y-19.3246
G1 X12.0129 Y-19.4290
G1 X11.8938 Y-19.5476
G1 X11.7831 Y-19.6563
G1 X11.6738 Y-19.7569
G1 X11.5664 Y-19.8493
G1 X11.4600 Y-19.9337
G1 X11.3543 Y-20.0104
G1 X11.2489 Y-20.0795
G1 X11.1435 Y-20.1412
G1 X11.0376 Y-20.1955
G1 X10.9311 Y-20.2430
G1 X10.8234 Y-20.2834
G1 X10.7142 Y-20.3172
G1 X10.6032 Y-20.3446
G1 X10.4902 Y-20.3655
G1 X10.3744 Y-20.3802
G1 X10.2558 Y-20.3888
G1 X10.1336 Y-20.3916
G1 X9.9459 Y-20.3777
G1 X9.7513 Y-20.3365
G1 X9.5540 Y-20.2702
G1 X9.3576 Y-20.1811
G1 X9.1656 Y-20.0703
G1 X8.9817 Y-19.9405
G1 X8.8095 Y-19.7930
G1 X8.6530 Y-19.6299
G1 X8.5501 Y-19.5153
G1 X8.4557 Y-19.4193
G1 X8.3680 Y-19.3408
G1 X8.2860 Y-19.2791
G1 X8.2078 Y-19.2326
G1 X8.1323 Y-19.2009
G1 X8.0581 Y-19.1828
G1 X7.9837 Y-19.1775
G1 X7.7086 Y-19.1803
G1 X8.0213 Y-19.3149
G1 X8.1625 Y-19.3911
G1 X8.3152 Y-19.4996
G1 X8.4615 Y-19.6256
G1 X8.5827 Y-19.7546
G1 X8.7013 Y-19.8852
G1 X8.8367 Y-20.0081
G1 X8.9865 Y-20.1214
G1 X9.1483 Y-20.2240
G1 X9.3195 Y-20.3144
G1 X9.4976 Y-20.3911
G1 X9.6799 Y-20.4528
G1 X9.8646 Y-20.4978
G1 X9.9952 Y-20.5194
G1 X10.1239 Y-20.5323
G1 X10.2514 Y-20.5367
G1 X10.3777 Y-20.5323
G1 X10.5026 Y-20.5191
G1 X10.6269 Y-20.4968
G1 X10.7506 Y-20.4658
G1 X10.8737 Y-20.4254
G1 X10.9969 Y-20.3761
G1 X11.1201 Y-20.3175
G1 X11.2438 Y-20.2496
G1 X11.3678 Y-20.1722
G1 X11.4925 Y-20.0856
G1 X11.6182 Y-19.9890
G1 X11.7452 Y-19.8831
G1 X11.8735 Y-19.7673
G1 X12.0541 Y-19.6078
G1 X12.2207 Y-19.4770
G1 X12.3548 Y-19.3888
G1 X12.4379 Y-19.3563
G1 X12.4798 Y-19.3487
G1 X12.5517 Y-19.3266
G1 X12.6500 Y-19.2918
G1 X12.7701 Y-19.2456
G1 X12.9085 Y-19.1900
G1 X13.0614 Y-19.1259
G1 X13.2248 Y-19.0553
G1 X13.3944 Y-18.9796
G1 X13.5743 Y-18.8963
G1 X13.7485 Y-18.8115
G1 X13.9167 Y-18.7256
G1 X14.0787 Y-18.6385
G1 X14.2352 Y-18.5501
G1 X14.3855 Y-18.4605
G1 X14.5303 Y-18.3695
G1 X14.6690 Y-18.2773
G1 X14.8018 Y-18.1836
G1 X14.9291 Y-18.0886
G1 X15.0503 Y-17.9923
G1 X15.1658 Y-17.8946
G1 X15.2756 Y-17.7955
G1 X15.3794 Y-17.6949
G1 X15.4777 Y-17.5931
G1 X15.5702 Y-17.4897
G1 X15.6568 Y-17.3848
G1 X15.7378 Y-17.2783
G1 X15.8133 Y-17.1704
G1 X15.8831 Y-17.0609
G1 X15.9471 Y-16.9502
G1 X16.0056 Y-16.8377
G1 X16.0581 Y-16.7236
G1 X16.1054 Y-16.6078
G1 X16.1468 Y-16.4907
G1 X16.1828 Y-16.3716
G1 X16.2133 Y-16.2512
G1 X16.2380 Y-16.1290
G1 X16.2573 Y-16.0050
G1 X16.2710 Y-15.8796
G1 X16.2794 Y-15.7523
G1 X16.2822 Y-15.6233
G1 X16.2855 Y-15.5164
G1 X16.2949 Y-15.3987
G1 X16.3096 Y-15.2743
G1 X16.3294 Y-15.1468
G1 X16.3533 Y-15.0203
G1 X16.3807 Y-14.8984
G1 X16.4109 Y-14.7848
G1 X16.4432 Y-14.6840
G1 X16.4760 Y-14.5842
G1 X16.5052 Y-14.4780
G1 X16.5313 Y-14.3655
G1 X16.5539 Y-14.2474
G1 X16.5735 Y-14.1239
G1 X16.5900 Y-13.9957
G1 X16.6032 Y-13.8628
G1 X16.6131 Y-13.7259
G1 X16.6202 Y-13.5849
G1 X16.6243 Y-13.4409
G1 X16.6253 Y-13.2936
G1 X16.6233 Y-13.1440
G1 X16.6182 Y-12.9918
G1 X16.6106 Y-12.8382
G1 X16.5999 Y-12.6827
G1 X16.5865 Y-12.5265
G1 X16.5702 Y-12.3695
G1 X16.5511 Y-12.2123
G1 X16.5296 Y-12.0551
G1 X16.5052 Y-11.8986
G1 X16.4782 Y-11.7429
G1 X16.4485 Y-11.5882
G1 X16.4165 Y-11.4356
G1 X16.3817 Y-11.2847
G1 X16.3446 Y-11.1366
G1 X16.3050 Y-10.9911
G1 X16.2629 Y-10.8488
G1 X16.2187 Y-10.7102
G1 X16.1719 Y-10.5755
G1 X16.1229 Y-10.4452
G1 X16.0716 Y-10.3198
G1 X16.0180 Y-10.1994
G1 X15.9258 Y-9.9972
G1 X15.8504 Y-9.8247
G1 X15.7993 Y-9.7003
G1 X15.7808 Y-9.6423
G1 X15.8184 Y-9.6289
G1 X15.9207 Y-9.6261
G1 X16.0721 Y-9.6340
G1 X16.2570 Y-9.6520
G1 X16.4991 Y-9.6713
G1 X16.7419 Y-9.6733
G1 X16.9842 Y-9.6589
G1 X17.2253 Y-9.6279
G1 X17.4635 Y-9.5814
G1 X17.6982 Y-9.5197
G1 X17.9278 Y-9.4432
G1 X18.1516 Y-9.3523
G1 X18.3683 Y-9.2479
G1 X18.5765 Y-9.1300
G1 X18.7757 Y-8.9997
G1 X18.9641 Y-8.8570
G1 X19.1409 Y-8.7025
G1 X19.3053 Y-8.5369
G1 X19.4556 Y-8.3604
G1 X19.5910 Y-8.1737
G1 X19.6898 Y-8.0289
G1 X19.7808 Y-7.9024
G1 X19.8539 Y-7.8082
G1 X19.8989 Y-7.7594
G1 X19.9169 Y-7.7358
G1 X19.9426 Y-7.6883
G1 X19.9751 Y-7.6195
G1 X20.0129 Y-7.5326
G1 X20.0546 Y-7.4303
G1 X20.0995 Y-7.3152
G1 X20.1460 Y-7.1907
G1 X20.1933 Y-7.0594
G1 X20.2479 Y-6.8867
G1 X20.2938 Y-6.7056
G1 X20.3309 Y-6.5179
G1 X20.3594 Y-6.3246
G1 X20.3792 Y-6.1272
G1 X20.3904 Y-5.9268
G1 X20.3929 Y-5.7249
G1 X20.3871 Y-5.5227
G1 X20.3731 Y-5.3213
G1 X20.3505 Y-5.1224
G1 X20.3197 Y-4.9271
G1 X20.2809 Y-4.7366
G1 X20.2339 Y-4.5522
G1 X20.1788 Y-4.3754
G1 X20.1155 Y-4.2075
G1 X20.0447 Y-4.0495
G1 X19.9718 Y-3.9106
G1 X19.8897 Y-3.7714
G1 X19.7996 Y-3.6322
G1 X19.7018 Y-3.4940
G1 X19.5971 Y-3.3579
G1 X19.4864 Y-3.2240
G1 X19.3703 Y-3.0935
G1 X19.2496 Y-2.9670
G1 X19.1249 Y-2.8453
G1 X18.9972 Y-2.7290
G1 X18.8671 Y-2.6187
G1 X18.7350 Y-2.5156
G1 X18.6022 Y-2.4204
G1 X18.4691 Y-2.3332
G1 X18.3363 Y-2.2555
G1 X18.2049 Y-2.1874
G1 X18.1155 Y-2.1453
G1 X18.0312 Y-2.1077
G1 X17.9509 Y-2.0742
G1 X17.8732 Y-2.0447
G1 X17.7968 Y-2.0190
G1 X17.7201 Y-1.9967
G1 X17.6416 Y-1.9776
G1 X17.5600 Y-1.9616
G1 X17.4742 Y-1.9484
G1 X17.3825 Y-1.9375
G1 X17.2837 Y-1.9291
G1 X17.1762 Y-1.9225
G1 X17.0589 Y-1.9180
G1 X16.9301 Y-1.9147
G1 X16.7886 Y-1.9129
G1 X16.6329 Y-1.9119
G1 X16.4699 Y-1.9119
G1 X16.3233 Y-1.9129
G1 X16.1915 Y-1.9152
G1 X16.0729 Y-1.9190
G1 X15.9657 Y-1.9251
G1 X15.8681 Y-1.9334
G1 X15.7782 Y-1.9444
G1 X15.6947 Y-1.9583
G1 X15.6154 Y-1.9759
G1 X15.5390 Y-1.9969
G1 X15.4633 Y-2.0218
G1 X15.3868 Y-2.0513
G1 X15.3076 Y-2.0856
G1 X15.2243 Y-2.1247
G1 X15.1348 Y-2.1692
G1 X15.0378 Y-2.2195
G1 X14.8892 Y-2.3012
G1 X14.7429 Y-2.3901
G1 X14.5999 Y-2.4851
G1 X14.4600 Y-2.5862
G1 X14.3241 Y-2.6929
G1 X14.1922 Y-2.8047
G1 X14.0652 Y-2.9207
G1 X13.9433 Y-3.0414
G1 X13.8267 Y-3.1656
G1 X13.7163 Y-3.2931
G1 X13.6121 Y-3.4234
G1 X13.5146 Y-3.5563
G1 X13.4247 Y-3.6911
G1 X13.3421 Y-3.8273
G1 X13.2679 Y-3.9647
G1 X13.2022 Y-4.1029
G1 X13.1475 Y-4.2385
G1 X13.0970 Y-4.3884
G1 X13.0510 Y-4.5499
G1 X13.0099 Y-4.7214
G1 X12.9733 Y-4.9002
G1 X12.9421 Y-5.0841
G1 X12.9162 Y-5.2710
G1 X12.8956 Y-5.4587
G1 X12.8808 Y-5.6449
G1 X12.8720 Y-5.8273
G1 X12.8694 Y-6.0035
G1 X12.8730 Y-6.1717
G1 X12.8834 Y-6.3292
G1 X12.9004 Y-6.4742
G1 X12.9243 Y-6.6043
G1 X12.9555 Y-6.7170
G1 X12.9946 Y-6.8415
G1 X13.0122 Y-6.9322
G1 X13.0025 Y-6.9898
G1 X12.9604 Y-7.0152
G1 X12.8796 Y-7.0099
G1 X12.7546 Y-6.9741
G1 X12.5801 Y-6.9091
G1 X12.3500 Y-6.8156
G1 X12.2527 Y-6.7785
G1 X12.1483 Y-6.7440
G1 X12.0368 Y-6.7119
G1 X11.9190 Y-6.6827
G1 X11.7950 Y-6.6561
G1 X11.6657 Y-6.6322
G1 X11.5313 Y-6.6109
G1 X11.3924 Y-6.5921
G1 X11.2494 Y-6.5758
G1 X11.1026 Y-6.5623
G1 X10.9527 Y-6.5514
G1 X10.8001 Y-6.5433
G1 X10.6451 Y-6.5375
G1 X10.4884 Y-6.5344
G1 X10.3304 Y-6.5336
G1 X10.1714 Y-6.5357
G1 X10.0119 Y-6.5402
G1 X9.8524 Y-6.5471
G1 X9.6937 Y-6.5568
G1 X9.5354 Y-6.5687
G1 X9.3789 Y-6.5832
G1 X9.2240 Y-6.6002
G1 X9.0716 Y-6.6197
G1 X8.9220 Y-6.6418
G1 X8.7754 Y-6.6662
G1 X8.6327 Y-6.6932
G1 X8.4940 Y-6.7226
G1 X8.3599 Y-6.7544
G1 X8.2309 Y-6.7887
G1 X8.1074 Y-6.8252
G1 X7.9901 Y-6.8643
G1 X7.8791 Y-6.9058
G1 X7.8425 Y-6.9134
G1 X7.8148 Y-6.9017
G1 X7.7955 Y-6.8674
G1 X7.7841 Y-6.8072
G1 X7.7805 Y-6.7178
G1 X7.7843 Y-6.5959
G1 X7.7950 Y-6.4381
G1 X7.8125 Y-6.2413
G1 X7.8273 Y-6.0282
G1 X7.8311 Y-5.8146
G1 X7.8242 Y-5.6012
G1 X7.8067 Y-5.3884
G1 X7.7790 Y-5.1765
G1 X7.7409 Y-4.9667
G1 X7.6929 Y-4.7589
G1 X7.6347 Y-4.5542
G1 X7.5672 Y-4.3531
G1 X7.4900 Y-4.1559
G1 X7.4036 Y-3.9632
G1 X7.3078 Y-3.7757
G1 X7.2032 Y-3.5941
G1 X7.0896 Y-3.4186
G1 X6.9677 Y-3.2502
G1 X6.8372 Y-3.0891
G1 X6.7597 Y-3.0051
G1 X6.6700 Y-2.9187
G1 X6.5697 Y-2.8308
G1 X6.4600 Y-2.7424
G1 X6.3424 Y-2.6543
G1 X6.2184 Y-2.5674
G1 X6.0891 Y-2.4823
G1 X5.9563 Y-2.4003
G1 X5.8214 Y-2.3218
G1 X5.6855 Y-2.2479
G1 X5.5504 Y-2.1793
G1 X5.4173 Y-2.1171
G1 X5.2880 Y-2.0620
G1 X5.1633 Y-2.0147
G1 X5.0452 Y-1.9764
G1 X4.9347 Y-1.9479
G1 X4.8136 Y-1.9248
G1 X4.6810 Y-1.9065
G1 X4.5385 Y-1.8928
G1 X4.3884 Y-1.8834
G1 X4.2324 Y-1.8783
G1 X4.0726 Y-1.8776
G1 X4.0726 Y-1.8776
; Retract
G1 Z2.5400 F2541

; Path 1
; Rapid to initial position
G1 X8.8755 Y-10.0302 F2541
G1 Z0.0000
; plunge
G1 Z-2.0000 F127
; cut
G1 X8.8222 Y-10.0632 F1016
G1 X8.7711 Y-10.1023
G1 X8.7224 Y-10.1476
G1 X8.6759 Y-10.1991
G1 X8.6314 Y-10.2573
G1 X8.5893 Y-10.3223
G1 X8.5489 Y-10.3939
G1 X8.5103 Y-10.4727
G1 X8.4737 Y-10.5588
G1 X8.4389 Y-10.6523
G1 X8.4056 Y-10.7531
G1 X8.3739 Y-10.8621
G1 X8.3436 Y-10.9786
G1 X8.3149 Y-11.1036
G1 X8.2873 Y-11.2367
G1 X8.2611 Y-11.3784
G1 X8.2372 Y-11.5291
G1 X8.2184 Y-11.6774
G1 X8.2052 Y-11.8232
G1 X8.1971 Y-11.9667
G1 X8.1945 Y-12.1079
G1 X8.1973 Y-12.2471
G1 X8.2052 Y-12.3843
G1 X8.2189 Y-12.5192
G1 X8.2377 Y-12.6522
G1 X8.2621 Y-12.7833
G1 X8.2918 Y-12.9126
G1 X8.3269 Y-13.0401
G1 X8.3673 Y-13.1661
G1 X8.4132 Y-13.2903
G1 X8.4648 Y-13.4132
G1 X8.5217 Y-13.5344
G1 X8.7638 Y-14.0241
G1 X8.5369 Y-14.2225
G1 X8.5110 Y-14.3373
G1 X8.7201 Y-14.2575
G1 X8.9431 Y-14.1862
G1 X9.1760 Y-14.1239
G1 X9.4155 Y-14.0713
G1 X9.6576 Y-14.0297
G1 X9.8986 Y-13.9990
G1 X10.1349 Y-13.9804
G1 X10.3627 Y-13.9748
G1 X10.4704 Y-13.9756
G1 X10.5710 Y-13.9776
G1 X10.6660 Y-13.9809
G1 X10.7564 Y-13.9855
G1 X10.8438 Y-13.9921
G1 X10.9294 Y-14.0005
G1 X11.0142 Y-14.0109
G1 X11.1001 Y-14.0238
G1 X11.1879 Y-14.0393
G1 X11.2791 Y-14.0576
G1 X11.3749 Y-14.0787
G1 X11.4767 Y-14.1031
G1 X11.5860 Y-14.1310
G1 X11.7038 Y-14.1625
G1 X11.8316 Y-14.1978
G1 X11.9703 Y-14.2370
G1 X12.0368 Y-14.1613
G1 X11.8524 Y-14.0134
G1 X12.0833 Y-13.5565
G1 X12.1153 Y-13.4904
G1 X12.1448 Y-13.4247
G1 X12.1717 Y-13.3584
G1 X12.1963 Y-13.2908
G1 X12.2187 Y-13.2212
G1 X12.2390 Y-13.1493
G1 X12.2573 Y-13.0741
G1 X12.2738 Y-12.9951
G1 X12.2885 Y-12.9118
G1 X12.3017 Y-12.8232
G1 X12.3134 Y-12.7290
G1 X12.3238 Y-12.6281
G1 X12.3330 Y-12.5202
G1 X12.3408 Y-12.4046
G1 X12.3480 Y-12.2806
G1 X12.3543 Y-12.1475
G1 X12.3601 Y-11.9962
G1 X12.3647 Y-11.8595
G1 X12.3673 Y-11.7356
G1 X12.3678 Y-11.6233
G1 X12.3662 Y-11.5209
G1 X12.3622 Y-11.4272
G1 X12.3556 Y-11.3403
G1 X12.3459 Y-11.2591
G1 X12.3335 Y-11.1818
G1 X12.3177 Y-11.1072
G1 X12.2984 Y-11.0333
G1 X12.2753 Y-10.9591
G1 X12.2484 Y-10.8826
G1 X12.2174 Y-10.8029
G1 X12.1821 Y-10.7183
G1 X12.1425 Y-10.6269
G1 X12.0818 Y-10.4978
G1 X12.0206 Y-10.3810
G1 X11.9591 Y-10.2776
G1 X11.8979 Y-10.1882
G1 X11.8377 Y-10.1135
G1 X11.7787 Y-10.0543
G1 X11.7218 Y-10.0114
G1 X11.6675 Y-9.9852
G1 X11.5641 Y-9.9644
G1 X11.5641 Y-9.9644
G1 X11.4618 Y-9.9695
G1 X11.3612 Y-9.9985
G1 X11.2634 Y-10.0505
G1 X11.1689 Y-10.1239
G1 X11.0787 Y-10.2174
G1 X10.9934 Y-10.3297
G1 X10.9139 Y-10.4592
G1 X10.8407 Y-10.6048
G1 X10.7749 Y-10.7648
G1 X10.7170 Y-10.9380
G1 X10.6680 Y-11.1229
G1 X10.6286 Y-11.3185
G1 X10.5994 Y-11.5227
G1 X10.5814 Y-11.7348
G1 X10.5753 Y-11.9532
G1 X10.5824 Y-12.1864
G1 X10.6025 Y-12.4310
G1 X10.6337 Y-12.6782
G1 X10.6746 Y-12.9184
G1 X10.7234 Y-13.1435
G1 X10.7780 Y-13.3439
G1 X10.8372 Y-13.5110
G1 X10.8989 Y-13.6357
G1 X10.9118 Y-13.6698
G1 X10.9022 Y-13.6977
G1 X10.8682 Y-13.7201
G1 X10.8069 Y-13.7373
G1 X10.7165 Y-13.7498
G1 X10.5946 Y-13.7582
G1 X10.4386 Y-13.7625
G1 X10.2466 Y-13.7635
G1 X10.1013 Y-13.7617
G1 X9.9703 Y-13.7569
G1 X9.8555 Y-13.7498
G1 X9.7597 Y-13.7401
G1 X9.6855 Y-13.7287
G1 X9.6355 Y-13.7155
G1 X9.6121 Y-13.7013
G1 X9.6182 Y-13.6860
G1 X9.6566 Y-13.6497
G1 X9.6942 Y-13.5976
G1 X9.7310 Y-13.5311
G1 X9.7666 Y-13.4513
G1 X9.8006 Y-13.3594
G1 X9.8331 Y-13.2568
G1 X9.8636 Y-13.1445
G1 X9.8918 Y-13.0238
G1 X9.9177 Y-12.8961
G1 X9.9408 Y-12.7622
G1 X9.9606 Y-12.6235
G1 X9.9774 Y-12.4816
G1 X9.9906 Y-12.3370
G1 X10.0000 Y-12.1915
G1 X10.0051 Y-12.0459
G1 X10.0061 Y-11.9017
G1 X9.9977 Y-11.6629
G1 X9.9779 Y-11.4348
G1 X9.9469 Y-11.2187
G1 X9.9057 Y-11.0157
G1 X9.8552 Y-10.8268
G1 X9.7958 Y-10.6535
G1 X9.7285 Y-10.4968
G1 X9.6538 Y-10.3581
G1 X9.5722 Y-10.2382
G1 X9.4849 Y-10.1387
G1 X9.3922 Y-10.0602
G1 X9.2951 Y-10.0046
G1 X9.1940 Y-9.9723
G1 X9.0902 Y-9.9652
G1 X8.9837 Y-9.9840
G1 X8.8755 Y-10.0302
; Retract
G1 Z2.5400 F2541

; Path 2
; Rapid to initial position
G1 X8.9195 Y-10.1813 F2541
G1 Z0.0000
; plunge
G1 Z-2.0000 F127
; cut
G1 X8.9807 Y-10.1595 F1016
G1 X9.0515 Y-10.1536
G1 X9.0515 Y-10.1536
G1 X9.1359 Y-10.1600
G1 X9.2085 Y-10.1752
G1 X9.2774 Y-10.2032
G1 X9.3426 Y-10.2436
G1 X9.4043 Y-10.2967
G1 X9.4623 Y-10.3622
G1 X9.5161 Y-10.4399
G1 X9.5664 Y-10.5298
G1 X9.6129 Y-10.6322
G1 X9.6556 Y-10.7462
G1 X9.6942 Y-10.8725
G1 X9.7287 Y-11.0106
G1 X9.7594 Y-11.1603
G1 X9.7859 Y-11.3218
G1 X9.8085 Y-11.4950
G1 X9.8270 Y-11.6794
G1 X9.8412 Y-11.8755
G1 X9.8491 Y-12.0269
G1 X9.8539 Y-12.1638
G1 X9.8557 Y-12.2860
G1 X9.8544 Y-12.3937
G1 X9.8499 Y-12.4864
G1 X9.8425 Y-12.5644
G1 X9.8321 Y-12.6271
G1 X9.8189 Y-12.6746
G1 X9.8029 Y-12.7071
G1 X9.7838 Y-12.7241
G1 X9.7620 Y-12.7257
G1 X9.7373 Y-12.7114
G1 X9.7102 Y-12.6817
G1 X9.6802 Y-12.6360
G1 X9.6477 Y-12.5745
G1 X9.6126 Y-12.4968
G1 X9.4661 Y-12.2982
G1 X9.2786 Y-12.2263
G1 X9.0955 Y-12.2832
G1 X8.9624 Y-12.4704
G1 X8.9060 Y-12.6555
G1 X8.8710 Y-12.8420
G1 X8.8567 Y-13.0244
G1 X8.8631 Y-13.1968
G1 X8.8890 Y-13.3546
G1 X8.9345 Y-13.4917
G1 X8.9985 Y-13.6030
G1 X9.0808 Y-13.6830
G1 X9.1816 Y-13.9085
G1 X9.1039 Y-13.9235
G1 X9.0114 Y-13.8867
G1 X8.9101 Y-13.8052
G1 X8.8054 Y-13.6865
G1 X8.7036 Y-13.5385
G1 X8.6101 Y-13.3683
G1 X8.5311 Y-13.1836
G1 X8.4722 Y-12.9921
G1 X8.4386 Y-12.8420
G1 X8.4112 Y-12.6901
G1 X8.3891 Y-12.5367
G1 X8.3731 Y-12.3825
G1 X8.3624 Y-12.2278
G1 X8.3576 Y-12.0736
G1 X8.3584 Y-11.9205
G1 X8.3647 Y-11.7686
G1 X8.3764 Y-11.6187
G1 X8.3937 Y-11.4717
G1 X8.4165 Y-11.3279
G1 X8.4447 Y-11.1879
G1 X8.4783 Y-11.0523
G1 X8.5171 Y-10.9215
G1 X8.5613 Y-10.7965
G1 X8.6106 Y-10.6777
G1 X8.6868 Y-10.5133
G1 X8.7516 Y-10.3856
G1 X8.8090 Y-10.2903
G1 X8.8636 Y-10.2238
G1 X8.9195 Y-10.1813
; Retract
G1 Z2.5400 F2541

; Path 3
; Rapid to initial position
G1 X10.9131 Y-10.8143 F2541
G1 Z0.0000
; plunge
G1 Z-2.0000 F127
; cut
G1 X10.9593 Y-10.6975 F1016
G1 X11.0383 Y-10.5270
G1 X11.1110 Y-10.3927
G1 X11.1811 Y-10.2911
G1 X11.2522 Y-10.2199
G1 X11.3276 Y-10.1765
G1 X11.4112 Y-10.1577
G1 X11.4112 Y-10.1577
G1 X11.5065 Y-10.1608
G1 X11.6169 Y-10.1831
G1 X11.6850 Y-10.2095
G1 X11.7490 Y-10.2519
G1 X11.8087 Y-10.3094
G1 X11.8641 Y-10.3805
G1 X11.9156 Y-10.4645
G1 X11.9626 Y-10.5603
G1 X12.0056 Y-10.6670
G1 X12.0444 Y-10.7836
G1 X12.0787 Y-10.9088
G1 X12.1089 Y-11.0416
G1 X12.1349 Y-11.1816
G1 X12.1564 Y-11.3271
G1 X12.1740 Y-11.4772
G1 X12.1869 Y-11.6312
G1 X12.1956 Y-11.7876
G1 X12.1999 Y-11.9459
G1 X12.1999 Y-12.1049
G1 X12.1956 Y-12.2631
G1 X12.1867 Y-12.4203
G1 X12.1737 Y-12.5748
G1 X12.1559 Y-12.7262
G1 X12.1341 Y-12.8727
G1 X12.1077 Y-13.0139
G1 X12.0767 Y-13.1486
G1 X12.0414 Y-13.2758
G1 X12.0015 Y-13.3944
G1 X11.9570 Y-13.5037
G1 X11.9083 Y-13.6022
G1 X11.8549 Y-13.6891
G1 X11.7968 Y-13.7632
G1 X11.7343 Y-13.8239
G1 X11.6672 Y-13.8699
G1 X11.5199 Y-13.9423
G1 X11.4254 Y-13.9723
G1 X11.3749 Y-13.8651
G1 X11.5164 Y-13.6639
G1 X11.6248 Y-13.5250
G1 X11.6957 Y-13.3396
G1 X11.7300 Y-13.1254
G1 X11.7292 Y-12.9002
G1 X11.6949 Y-12.6815
G1 X11.6284 Y-12.4874
G1 X11.5311 Y-12.3355
G1 X11.4041 Y-12.2438
G1 X11.3157 Y-12.2326
G1 X11.2199 Y-12.2679
G1 X11.1158 Y-12.3497
G1 X11.0020 Y-12.4793
G1 X10.7681 Y-12.7815
G1 X10.7699 Y-11.9532
G1 X10.7729 Y-11.7434
G1 X10.7813 Y-11.5524
G1 X10.7953 Y-11.3782
G1 X10.8151 Y-11.2189
G1 X10.8412 Y-11.0731
G1 X10.8737 Y-10.9388
G1 X10.9131 Y-10.8143
; Retract
G1 Z2.5400 F2541

; Path 4
; Rapid to initial position
G1 X11.2502 Y-12.4191 F2541
G1 Z0.0000
; plunge
G1 Z-2.0000 F127
; cut
G1 X11.4229 Y-12.5296 F1016
G1 X11.2705 Y-12.5771
G1 X11.2502 Y-12.4191
G1 X11.2502 Y-12.4191
; Retract
G1 Z2.5400 F2541

; Path 5
; Rapid to initial position
G1 X10.8430 Y-14.3627 F2541
G1 Z0.0000
; plunge
G1 Z-2.0000 F127
; cut
G1 X10.6891 Y-14.3477 F1016
G1 X10.5011 Y-14.3401
G1 X10.2697 Y-14.3373
G1 X10.2697 Y-14.3373
G1 X10.0447 Y-14.3386
G1 X9.8582 Y-14.3454
G1 X9.7028 Y-14.3591
G1 X9.5710 Y-14.3817
G1 X9.4551 Y-14.4148
G1 X9.3477 Y-14.4597
G1 X9.2410 Y-14.5189
G1 X9.1280 Y-14.5936
G1 X8.9875 Y-14.7038
G1 X8.8740 Y-14.8194
G1 X8.7864 Y-14.9390
G1 X8.7244 Y-15.0614
G1 X8.6876 Y-15.1849
G1 X8.6749 Y-15.3083
G1 X8.6863 Y-15.4302
G1 X8.7211 Y-15.5494
G1 X8.7787 Y-15.6642
G1 X8.8588 Y-15.7734
G1 X8.9604 Y-15.8758
G1 X9.0833 Y-15.9697
G1 X9.2268 Y-16.0541
G1 X9.3906 Y-16.1272
G1 X9.5740 Y-16.1882
G1 X9.7765 Y-16.2352
G1 X9.9416 Y-16.2611
G1 X10.1046 Y-16.2771
G1 X10.2654 Y-16.2834
G1 X10.4224 Y-16.2801
G1 X10.5753 Y-16.2677
G1 X10.7231 Y-16.2461
G1 X10.8651 Y-16.2159
G1 X11.0005 Y-16.1773
G1 X11.1285 Y-16.1303
G1 X11.2484 Y-16.0754
G1 X11.3591 Y-16.0129
G1 X11.4602 Y-15.9428
G1 X11.5506 Y-15.8659
G1 X11.6299 Y-15.7815
G1 X11.6970 Y-15.6908
G1 X11.7511 Y-15.5936
G1 X11.8036 Y-15.4597
G1 X11.8303 Y-15.3337
G1 X11.8303 Y-15.2136
G1 X11.8024 Y-15.0970
G1 X11.7460 Y-14.9817
G1 X11.6604 Y-14.8656
G1 X11.5448 Y-14.7465
G1 X11.3982 Y-14.6220
G1 X11.2867 Y-14.5382
G1 X11.1841 Y-14.4727
G1 X11.0818 Y-14.4229
G1 X10.9708 Y-14.3871
G1 X10.8430 Y-14.3627
; Retract
G1 Z2.5400 F2541

; Path 6
; Rapid to initial position
G1 X13.5245 Y-15.7551 F2541
G1 Z0.0000
; plunge
G1 Z-2.0000 F127
; cut
G1 X13.9647 Y-15.8445 F1016
G1 X14.1397 Y-15.8834
G1 X14.2908 Y-15.9235
G1 X14.4023 Y-15.9601
G1 X14.4577 Y-15.9883
G1 X14.5773 Y-15.8877
G1 X14.4935 Y-15.8217
G1 X14.3655 Y-15.7752
G1 X14.1963 Y-15.7490
G1 X13.9885 Y-15.7439
G1 X13.9885 Y-15.7439
G1 X13.5245 Y-15.7551
; Retract
G1 Z2.5400 F2541

; Path 7
; Rapid to initial position
G1 X14.0520 Y-16.2923 F2541
G1 Z0.0000
; plunge
G1 Z-2.0000 F127
; cut
G1 X13.9657 Y-16.3833 F1016
G1 X13.8704 Y-16.4869
G1 X13.7683 Y-16.6007
G1 X13.6500 Y-16.7300
G1 X13.5288 Y-16.8532
G1 X13.4046 Y-16.9705
G1 X13.2778 Y-17.0820
G1 X13.1481 Y-17.1877
G1 X13.0155 Y-17.2875
G1 X12.8801 Y-17.3812
G1 X12.7419 Y-17.4694
G1 X12.6009 Y-17.5514
G1 X12.4572 Y-17.6276
G1 X12.3104 Y-17.6977
G1 X12.1608 Y-17.7622
G1 X12.0084 Y-17.8206
G1 X11.8532 Y-17.8732
G1 X11.6952 Y-17.9200
G1 X11.5341 Y-17.9608
G1 X11.3703 Y-17.9959
G1 X11.2039 Y-18.0249
G1 X11.0345 Y-18.0482
G1 X10.8621 Y-18.0655
G1 X10.6870 Y-18.0769
G1 X10.5092 Y-18.0823
G1 X10.3284 Y-18.0820
G1 X10.1448 Y-18.0757
G1 X9.9583 Y-18.0635
G1 X9.7691 Y-18.0454
G1 X9.5771 Y-18.0216
G1 X9.3820 Y-17.9918
G1 X9.1841 Y-17.9560
G1 X8.9837 Y-17.9146
G1 X8.7803 Y-17.8671
G1 X8.5738 Y-17.8138
G1 X8.3927 Y-17.7584
G1 X8.2123 Y-17.6914
G1 X8.0338 Y-17.6134
G1 X7.8583 Y-17.5257
G1 X7.6865 Y-17.4290
G1 X7.5204 Y-17.3243
G1 X7.3609 Y-17.2126
G1 X7.2088 Y-17.0947
G1 X7.0655 Y-16.9718
G1 X6.9322 Y-16.8448
G1 X6.8100 Y-16.7142
G1 X6.7000 Y-16.5816
G1 X6.6035 Y-16.4475
G1 X6.5217 Y-16.3129
G1 X6.4554 Y-16.1788
G1 X6.4061 Y-16.0465
G1 X6.2835 Y-15.8755
G1 X6.2835 Y-15.8755
G1 X6.2629 Y-15.9255
G1 X6.2697 Y-16.0007
G1 X6.3007 Y-16.0975
G1 X6.3533 Y-16.2121
G1 X6.4247 Y-16.3408
G1 X6.5121 Y-16.4803
G1 X6.6121 Y-16.6263
G1 X6.7229 Y-16.7757
G1 X6.8407 Y-16.9243
G1 X6.9634 Y-17.0688
G1 X7.0876 Y-17.2055
G1 X7.2111 Y-17.3304
G1 X7.3304 Y-17.4401
G1 X7.4432 Y-17.5311
G1 X7.5463 Y-17.5992
G1 X7.6373 Y-17.6411
G1 X7.7211 Y-17.6939
G1 X7.8196 Y-17.7957
G1 X7.9205 Y-17.9314
G1 X8.0114 Y-18.0868
G1 X8.0825 Y-18.2184
G1 X8.1620 Y-18.3518
G1 X8.2486 Y-18.4861
G1 X8.3419 Y-18.6202
G1 X8.4402 Y-18.7528
G1 X8.5433 Y-18.8834
G1 X8.6497 Y-19.0104
G1 X8.7589 Y-19.1333
G1 X8.8697 Y-19.2507
G1 X8.9812 Y-19.3617
G1 X9.0927 Y-19.4655
G1 X9.2029 Y-19.5608
G1 X9.3111 Y-19.6464
G1 X9.4163 Y-19.7218
G1 X9.5174 Y-19.7858
G1 X9.6139 Y-19.8371
G1 X9.7853 Y-19.9009
G1 X9.9708 Y-19.9375
G1 X10.1661 Y-19.9469
G1 X10.3668 Y-19.9304
G1 X10.5682 Y-19.8879
G1 X10.7660 Y-19.8209
G1 X10.9560 Y-19.7294
G1 X11.1336 Y-19.6144
G1 X11.2243 Y-19.5392
G1 X11.3347 Y-19.4348
G1 X11.4605 Y-19.3065
G1 X11.5974 Y-19.1587
G1 X11.7411 Y-18.9959
G1 X11.8875 Y-18.8232
G1 X12.0320 Y-18.6451
G1 X12.1709 Y-18.4663
G1 X12.3038 Y-18.2933
G1 X12.4318 Y-18.1315
G1 X12.5519 Y-17.9850
G1 X12.6606 Y-17.8567
G1 X12.7554 Y-17.7505
G1 X12.8326 Y-17.6698
G1 X12.8895 Y-17.6182
G1 X12.9230 Y-17.5994
G1 X12.9764 Y-17.5829
G1 X13.0477 Y-17.5407
G1 X13.1341 Y-17.4765
G1 X13.2324 Y-17.3929
G1 X13.3398 Y-17.2936
G1 X13.4534 Y-17.1818
G1 X13.5700 Y-17.0609
G1 X13.6868 Y-16.9339
G1 X13.8011 Y-16.8044
G1 X13.9095 Y-16.6754
G1 X14.0094 Y-16.5501
G1 X14.0978 Y-16.4320
G1 X14.1717 Y-16.3243
G1 X14.2281 Y-16.2303
G1 X14.2639 Y-16.1534
G1 X14.2766 Y-16.0965
G1 X14.2662 Y-16.0942
G1 X14.2364 Y-16.1145
G1 X14.1895 Y-16.1559
G1 X14.1272 Y-16.2156
G1 X14.0520 Y-16.2923
; Retract
G1 Z2.5400 F2541

; Path 8
; Rapid to initial position
G1 X11.4452 Y-18.9207 F2541
G1 Z0.0000
; plunge
G1 Z-2.0000 F127
; cut
G1 X11.4681 Y-18.9725 F1016
G1 X11.4531 Y-19.0343
G1 X11.4094 Y-19.1074
G1 X11.3406 Y-19.1882
G1 X11.2507 Y-19.2735
G1 X11.1432 Y-19.3604
G1 X11.0216 Y-19.4452
G1 X10.8900 Y-19.5252
G1 X10.7518 Y-19.5969
G1 X10.5519 Y-19.6799
G1 X10.3632 Y-19.7320
G1 X10.1821 Y-19.7531
G1 X10.0051 Y-19.7421
G1 X9.8288 Y-19.6992
G1 X9.6495 Y-19.6235
G1 X9.4640 Y-19.5146
G1 X9.2690 Y-19.3718
G1 X9.1267 Y-19.2596
G1 X8.9941 Y-19.1564
G1 X8.8862 Y-19.0741
G1 X8.8179 Y-19.0236
G1 X8.8781 Y-18.7777
G1 X8.9804 Y-18.6972
G1 X9.1049 Y-18.6555
G1 X9.2720 Y-18.6497
G1 X9.5024 Y-18.6764
G1 X9.6848 Y-18.7114
G1 X9.8430 Y-18.7551
G1 X9.9598 Y-18.8013
G1 X10.0185 Y-18.8448
G1 X10.2271 Y-18.9380
G1 X10.3660 Y-18.7869
G1 X10.4379 Y-18.6715
G1 X10.6467 Y-18.6317
G1 X10.6467 Y-18.6317
G1 X10.7709 Y-18.6411
G1 X10.9055 Y-18.6667
G1 X11.0424 Y-18.7056
G1 X11.1732 Y-18.7538
G1 X11.2895 Y-18.8079
G1 X11.3830 Y-18.8648
G1 X11.4452 Y-18.9207
; Retract
G1 Z2.5400 F2541

; Path 9
; Rapid to initial position
G1 X6.6660 Y-15.5545 F2541
G1 Z0.0000
; plunge
G1 Z-2.0000 F127
; cut
G1 X6.6197 Y-15.5067 F1016
G1 X6.4422 Y-15.4617
G1 X6.4422 Y-15.4617
G1 X6.2233 Y-15.4823
G1 X6.0122 Y-15.5575
G1 X5.8575 Y-15.6761
G1 X5.8283 Y-15.7358
G1 X5.8763 Y-15.7592
G1 X6.0168 Y-15.7477
G1 X6.2647 Y-15.7018
G1 X6.4953 Y-15.6482
G1 X6.6269 Y-15.6004
G1 X6.6660 Y-15.5545
; Retract
G1 Z2.5400 F2541
M2
